ORBCOMM FM20            
1 25416U 98046D   24160.05889077  .00001571  00000+0  59195-3 0  9997
2 25416  44.9932 150.5562 0001915 291.8457  68.2186 14.35331354350514
ORBCOMM FM16            
1 25417U 98046E   24160.20628446  .00002745  00000+0  97709-3 0  9993
2 25417  44.9921 145.4089 0004341 244.9979 115.0418 14.36351007350656
ORBCOMM FM15            
1 25418U 98046F   24160.16845410  .00002091  00000+0  76008-3 0  9994
2 25418  44.9963 149.7159 0004093 248.8428 111.1982 14.36067405350608
ORBCOMM FM14            
1 25419U 98046G   24160.18961185  .00002423  00000+0  86981-3 0  9995
2 25419  44.9943 148.6892 0002792 252.5961 107.4581 14.36253664350615
ORBCOMM FM13            
1 25420U 98046H   24159.69325329  .00001758  00000+0  65421-3 0  9991
2 25420  44.9964 156.0701 0004503 222.7686 137.2811 14.35505044349387
ORBCOMM FM21            
1 25475U 98053A   24159.92376945  .00001561  00000+0  58714-3 0  9994
2 25475  45.0084 239.3431 0002110 229.4432 130.6231 14.35428635343435
ORBCOMM FM23            
1 25477U 98053C   24159.60311246  .00001624  00000+0  60841-3 0  9998
2 25477  45.0084 243.2734 0002224 200.9740 159.1017 14.35473902343849
